[{"OBJECT_NAME":"STARLINK-3452","OBJECT_ID":"2022-016AG","EPOCH":"2026-03-09T21:18:14.286240","MEAN_MOTION":15.08837099,"ECCENTRICITY":0.00014157,"INCLINATION":53.2173,"RA_OF_ASC_NODE":318.2629,"ARG_OF_PERICENTER":86.1361,"MEAN_ANOMALY":273.9793,"EPHEMERIS_TYPE":0,"CLASSIFICATION_TYPE":"U","NORAD_CAT_ID":51744,"ELEMENT_SET_NO":999,"REV_AT_EPOCH":22359,"BSTAR":0.00028966342,"MEAN_MOTION_DOT":4.325e-5,"MEAN_MOTION_DDOT":0},{"OBJECT_NAME":"CZ-3 DEB","OBJECT_ID":"1986-010D","EPOCH":"2026-03-04T17:01:16.287456","MEAN_MOTION":3.16638027,"ECCENTRICITY":0.65247621,"INCLINATION":30.621,"RA_OF_ASC_NODE":266.5669,"ARG_OF_PERICENTER":235.4613,"MEAN_ANOMALY":45.1046,"EPHEMERIS_TYPE":0,"CLASSIFICATION_TYPE":"U","NORAD_CAT_ID":25936,"ELEMENT_SET_NO":999,"REV_AT_EPOCH":1936,"BSTAR":0.01236034,"MEAN_MOTION_DOT":6.081e-5,"MEAN_MOTION_DDOT":0}]
